[{"OBJECT_NAME":"STARLINK-4318","OBJECT_ID":"2022-077AV","EPOCH":"2026-03-07T10:49:01.132320","MEAN_MOTION":15.01257304,"ECCENTRICITY":0.00010345,"INCLINATION":97.6033,"RA_OF_ASC_NODE":248.0304,"ARG_OF_PERICENTER":112.4439,"MEAN_ANOMALY":247.6895,"EPHEMERIS_TYPE":0,"CLASSIFICATION_TYPE":"U","NORAD_CAT_ID":53086,"ELEMENT_SET_NO":999,"REV_AT_EPOCH":20058,"BSTAR":0.00015800107,"MEAN_MOTION_DOT":1.972e-5,"MEAN_MOTION_DDOT":0},{"OBJECT_NAME":"STARLINK-4333","OBJECT_ID":"2022-077AX","EPOCH":"2026-03-07T12:19:38.704224","MEAN_MOTION":15.01261972,"ECCENTRICITY":0.00021091,"INCLINATION":97.6025,"RA_OF_ASC_NODE":248.0923,"ARG_OF_PERICENTER":55.8027,"MEAN_ANOMALY":304.3397,"EPHEMERIS_TYPE":0,"CLASSIFICATION_TYPE":"U","NORAD_CAT_ID":53088,"ELEMENT_SET_NO":999,"REV_AT_EPOCH":20059,"BSTAR":6.271175e-5,"MEAN_MOTION_DOT":7.47e-6,"MEAN_MOTION_DDOT":0},{"OBJECT_NAME":"STARLINK-4150","OBJECT_ID":"2022-083C","EPOCH":"2026-03-07T13:19:10.556256","MEAN_MOTION":15.08836892,"ECCENTRICITY":0.00013061,"INCLINATION":53.2184,"RA_OF_ASC_NODE":183.707,"ARG_OF_PERICENTER":96.0516,"MEAN_ANOMALY":264.0625,"EPHEMERIS_TYPE":0,"CLASSIFICATION_TYPE":"U","NORAD_CAT_ID":53134,"ELEMENT_SET_NO":999,"REV_AT_EPOCH":20089,"BSTAR":6.5151569e-5,"MEAN_MOTION_DOT":7.49e-6,"MEAN_MOTION_DDOT":0},{"OBJECT_NAME":"STARLINK-4023","OBJECT_ID":"2022-083D","EPOCH":"2026-03-07T15:05:09.384576","MEAN_MOTION":15.08847333,"ECCENTRICITY":0.0001224,"INCLINATION":53.216,"RA_OF_ASC_NODE":183.3722,"ARG_OF_PERICENTER":99.1824,"MEAN_ANOMALY":260.9307,"EPHEMERIS_TYPE":0,"CLASSIFICATION_TYPE":"U","NORAD_CAT_ID":53135,"ELEMENT_SET_NO":999,"REV_AT_EPOCH":20189,"BSTAR":0.0009144932,"MEAN_MOTION_DOT":0.00014299,"MEAN_MOTION_DDOT":0},{"OBJECT_NAME":"STARLINK-4152","OBJECT_ID":"2022-083E","EPOCH":"2026-03-07T13:24:28.490976","MEAN_MOTION":15.08837895,"ECCENTRICITY":0.0001232,"INCLINATION":53.2171,"RA_OF_ASC_NODE":183.6871,"ARG_OF_PERICENTER":90.5387,"MEAN_ANOMALY":269.5746,"EPHEMERIS_TYPE":0,"CLASSIFICATION_TYPE":"U","NORAD_CAT_ID":53136,"ELEMENT_SET_NO":999,"REV_AT_EPOCH":20188,"BSTAR":7.3479778e-5,"MEAN_MOTION_DOT":8.82e-6,"MEAN_MOTION_DDOT":0},{"OBJECT_NAME":"STARLINK-4145","OBJECT_ID":"2022-083F","EPOCH":"2026-03-07T14:49:15.585600","MEAN_MOTION":15.0884182,"ECCENTRICITY":0.00012831,"INCLINATION":53.217,"RA_OF_ASC_NODE":183.4233,"ARG_OF_PERICENTER":94.4729,"MEAN_ANOMALY":265.641,"EPHEMERIS_TYPE":0,"CLASSIFICATION_TYPE":"U","NORAD_CAT_ID":53137,"ELEMENT_SET_NO":999,"REV_AT_EPOCH":20090,"BSTAR":6.5049979e-5,"MEAN_MOTION_DOT":7.48e-6,"MEAN_MOTION_DDOT":0},{"OBJECT_NAME":"STARLINK-4141","OBJECT_ID":"2022-083G","EPOCH":"2026-03-07T14:47:18.877344","MEAN_MOTION":15.08830912,"ECCENTRICITY":0.0001221,"INCLINATION":53.2178,"RA_OF_ASC_NODE":178.6131,"ARG_OF_PERICENTER":87.2927,"MEAN_ANOMALY":272.8204,"EPHEMERIS_TYPE":0,"CLASSIFICATION_TYPE":"U","NORAD_CAT_ID":53138,"ELEMENT_SET_NO":999,"REV_AT_EPOCH":20174,"BSTAR":9.384052e-6,"MEAN_MOTION_DOT":-1.39e-6,"MEAN_MOTION_DDOT":0},{"OBJECT_NAME":"STARLINK-4185","OBJECT_ID":"2022-083H","EPOCH":"2026-03-07T14:33:21.973248","MEAN_MOTION":15.08840541,"ECCENTRICITY":0.00013444,"INCLINATION":53.2171,"RA_OF_ASC_NODE":183.4747,"ARG_OF_PERICENTER":88.1726,"MEAN_ANOMALY":271.942,"EPHEMERIS_TYPE":0,"CLASSIFICATION_TYPE":"U","NORAD_CAT_ID":53139,"ELEMENT_SET_NO":999,"REV_AT_EPOCH":20090,"BSTAR":4.6505237e-5,"MEAN_MOTION_DOT":4.52e-6,"MEAN_MOTION_DDOT":0},{"OBJECT_NAME":"STARLINK-4170","OBJECT_ID":"2022-083J","EPOCH":"2026-03-07T13:03:17.070912","MEAN_MOTION":15.08835142,"ECCENTRICITY":0.00010974,"INCLINATION":53.2173,"RA_OF_ASC_NODE":183.7542,"ARG_OF_PERICENTER":85.4958,"MEAN_ANOMALY":274.616,"EPHEMERIS_TYPE":0,"CLASSIFICATION_TYPE":"U","NORAD_CAT_ID":53140,"ELEMENT_SET_NO":999,"REV_AT_EPOCH":20089,"BSTAR":2.8197632e-5,"MEAN_MOTION_DOT":1.61e-6,"MEAN_MOTION_DDOT":0},{"OBJECT_NAME":"STARLINK-4103","OBJECT_ID":"2022-083K","EPOCH":"2026-03-07T14:12:10.066752","MEAN_MOTION":15.08845923,"ECCENTRICITY":0.00012021,"INCLINATION":53.2178,"RA_OF_ASC_NODE":183.541,"ARG_OF_PERICENTER":91.369,"MEAN_ANOMALY":268.744,"EPHEMERIS_TYPE":0,"CLASSIFICATION_TYPE":"U","NORAD_CAT_ID":53141,"ELEMENT_SET_NO":999,"REV_AT_EPOCH":20090,"BSTAR":0.00015658332,"MEAN_MOTION_DOT":2.205e-5,"MEAN_MOTION_DDOT":0},{"OBJECT_NAME":"STARLINK-4101","OBJECT_ID":"2022-083L","EPOCH":"2026-03-07T14:24:08.189856","MEAN_MOTION":15.08838249,"ECCENTRICITY":0.00011664,"INCLINATION":53.2167,"RA_OF_ASC_NODE":183.4761,"ARG_OF_PERICENTER":88.8263,"MEAN_ANOMALY":271.2863,"EPHEMERIS_TYPE":0,"CLASSIFICATION_TYPE":"U","NORAD_CAT_ID":53142,"ELEMENT_SET_NO":999,"REV_AT_EPOCH":20091,"BSTAR":9.6394063e-5,"MEAN_MOTION_DOT":1.247e-5,"MEAN_MOTION_DDOT":0},{"OBJECT_NAME":"STARLINK-4102","OBJECT_ID":"2022-083M","EPOCH":"2026-03-07T14:06:52.162272","MEAN_MOTION":15.08844156,"ECCENTRICITY":0.00011531,"INCLINATION":53.2164,"RA_OF_ASC_NODE":183.5578,"ARG_OF_PERICENTER":84.1388,"MEAN_ANOMALY":275.9736,"EPHEMERIS_TYPE":0,"CLASSIFICATION_TYPE":"U","NORAD_CAT_ID":53143,"ELEMENT_SET_NO":999,"REV_AT_EPOCH":20090,"BSTAR":4.8971331e-5,"MEAN_MOTION_DOT":4.92e-6,"MEAN_MOTION_DDOT":0},{"OBJECT_NAME":"STARLINK-4100","OBJECT_ID":"2022-083N","EPOCH":"2026-03-07T14:22:45.451488","MEAN_MOTION":15.08846005,"ECCENTRICITY":0.00012141,"INCLINATION":53.2169,"RA_OF_ASC_NODE":183.5153,"ARG_OF_PERICENTER":90.0395,"MEAN_ANOMALY":270.0737,"EPHEMERIS_TYPE":0,"CLASSIFICATION_TYPE":"U","NORAD_CAT_ID":53144,"ELEMENT_SET_NO":999,"REV_AT_EPOCH":20090,"BSTAR":9.4136496e-5,"MEAN_MOTION_DOT":1.211e-5,"MEAN_MOTION_DDOT":0},{"OBJECT_NAME":"STARLINK-4106","OBJECT_ID":"2022-083P","EPOCH":"2026-03-07T13:56:17.107584","MEAN_MOTION":15.08838668,"ECCENTRICITY":0.00011601,"INCLINATION":53.2178,"RA_OF_ASC_NODE":183.5908,"ARG_OF_PERICENTER":73.6884,"MEAN_ANOMALY":286.4236,"EPHEMERIS_TYPE":0,"CLASSIFICATION_TYPE":"U","NORAD_CAT_ID":53145,"ELEMENT_SET_NO":999,"REV_AT_EPOCH":20090,"BSTAR":0.00020350532,"MEAN_MOTION_DOT":2.952e-5,"MEAN_MOTION_DDOT":0},{"OBJECT_NAME":"STARLINK-4094","OBJECT_ID":"2022-083R","EPOCH":"2026-03-07T15:26:21.359328","MEAN_MOTION":15.08854318,"ECCENTRICITY":0.00011179,"INCLINATION":53.2169,"RA_OF_ASC_NODE":183.3094,"ARG_OF_PERICENTER":95.821,"MEAN_ANOMALY":264.291,"EPHEMERIS_TYPE":0,"CLASSIFICATION_TYPE":"U","NORAD_CAT_ID":53147,"ELEMENT_SET_NO":999,"REV_AT_EPOCH":20156,"BSTAR":0.00012824798,"MEAN_MOTION_DOT":1.755e-5,"MEAN_MOTION_DDOT":0},{"OBJECT_NAME":"STARLINK-4021","OBJECT_ID":"2022-083T","EPOCH":"2026-03-07T14:30:48.042144","MEAN_MOTION":15.08841201,"ECCENTRICITY":0.0001435,"INCLINATION":53.2183,"RA_OF_ASC_NODE":173.6838,"ARG_OF_PERICENTER":92.4014,"MEAN_ANOMALY":267.7143,"EPHEMERIS_TYPE":0,"CLASSIFICATION_TYPE":"U","NORAD_CAT_ID":53149,"ELEMENT_SET_NO":999,"REV_AT_EPOCH":20104,"BSTAR":0.00011617249,"MEAN_MOTION_DOT":1.561e-5,"MEAN_MOTION_DDOT":0}]
