STARLINK-4318           
1 53086U 22077AV  26066.45070755  .00001972  00000+0  15800-3 0  9998
2 53086  97.6033 248.0304 0001034 112.4439 247.6895 15.01257304200589
STARLINK-4333           
1 53088U 22077AX  26066.51364241  .00000747  00000+0  62712-4 0  9997
2 53088  97.6025 248.0923 0002109  55.8027 304.3397 15.01261972200591
STARLINK-4150           
1 53134U 22083C   26066.55498329  .00000749  00000+0  65152-4 0  9998
2 53134  53.2184 183.7070 0001306  96.0516 264.0625 15.08836892200898
STARLINK-4023           
1 53135U 22083D   26066.62858084  .00014299  00000+0  91449-3 0  9997
2 53135  53.2160 183.3722 0001224  99.1824 260.9307 15.08847333201893
STARLINK-4152           
1 53136U 22083E   26066.55866309  .00000882  00000+0  73480-4 0  9998
2 53136  53.2171 183.6871 0001232  90.5387 269.5746 15.08837895201885
STARLINK-4145           
1 53137U 22083F   26066.61754150  .00000748  00000+0  65050-4 0  9991
2 53137  53.2170 183.4233 0001283  94.4729 265.6410 15.08841820200904
STARLINK-4141           
1 53138U 22083G   26066.61619071 -.00000139  00000+0  93841-5 0  9999
2 53138  53.2178 178.6131 0001221  87.2927 272.8204 15.08830912201742
STARLINK-4185           
1 53139U 22083H   26066.60650432  .00000452  00000+0  46505-4 0  9996
2 53139  53.2171 183.4747 0001344  88.1726 271.9420 15.08840541200902
STARLINK-4170           
1 53140U 22083J   26066.54394758  .00000161  00000+0  28198-4 0  9992
2 53140  53.2173 183.7542 0001097  85.4958 274.6160 15.08835142200894
STARLINK-4103           
1 53141U 22083K   26066.59178318  .00002205  00000+0  15658-3 0  9997
2 53141  53.2178 183.5410 0001202  91.3690 268.7440 15.08845923200904
STARLINK-4101           
1 53142U 22083L   26066.60009479  .00001247  00000+0  96394-4 0  9993
2 53142  53.2167 183.4761 0001166  88.8263 271.2863 15.08838249200919
STARLINK-4102           
1 53143U 22083M   26066.58810373  .00000492  00000+0  48971-4 0  9993
2 53143  53.2164 183.5578 0001153  84.1388 275.9736 15.08844156200900
STARLINK-4100           
1 53144U 22083N   26066.59913717  .00001211  00000+0  94136-4 0  9995
2 53144  53.2169 183.5153 0001214  90.0395 270.0737 15.08846005200909
STARLINK-4106           
1 53145U 22083P   26066.58075356  .00002952  00000+0  20351-3 0  9993
2 53145  53.2178 183.5908 0001160  73.6884 286.4236 15.08838668200909
STARLINK-4094           
1 53147U 22083R   26066.64330277  .00001755  00000+0  12825-3 0  9995
2 53147  53.2169 183.3094 0001117  95.8210 264.2910 15.08854318201562
STARLINK-4021           
1 53149U 22083T   26066.60472271  .00001561  00000+0  11617-3 0  9997
2 53149  53.2183 173.6838 0001435  92.4014 267.7143 15.08841201201042
